[{"OBJECT_NAME":"STARLINK-4254","OBJECT_ID":"2022-076N","EPOCH":"2026-03-09T08:25:10.453152","MEAN_MOTION":15.08838803,"ECCENTRICITY":0.00013083,"INCLINATION":53.2164,"RA_OF_ASC_NODE":95.5555,"ARG_OF_PERICENTER":95.1441,"MEAN_ANOMALY":264.9701,"EPHEMERIS_TYPE":0,"CLASSIFICATION_TYPE":"U","NORAD_CAT_ID":52998,"ELEMENT_SET_NO":999,"REV_AT_EPOCH":20279,"BSTAR":-2.7543188e-5,"MEAN_MOTION_DOT":-7.26e-6,"MEAN_MOTION_DDOT":0},{"OBJECT_NAME":"NOAA 17 DEB","OBJECT_ID":"2002-032BW","EPOCH":"2026-03-08T22:40:23.580768","MEAN_MOTION":15.05196658,"ECCENTRICITY":0.00149213,"INCLINATION":98.7181,"RA_OF_ASC_NODE":121.0481,"ARG_OF_PERICENTER":217.4424,"MEAN_ANOMALY":142.5761,"EPHEMERIS_TYPE":0,"CLASSIFICATION_TYPE":"U","NORAD_CAT_ID":48737,"ELEMENT_SET_NO":999,"REV_AT_EPOCH":26108,"BSTAR":0.0055556624,"MEAN_MOTION_DOT":0.00080221,"MEAN_MOTION_DDOT":0}]
